start=new Date('2022-06-17T00:00:00.000Z').valueOf();
sats=[{"MEAN_MOTION":"15.06404660","FILE":"3497002","APOAPSIS":"548.472","COUNTRY_CODE":"US","PERIOD":"95.592","EPOCH":"2022-06-15T23:33:12.083904","BSTAR":"-0.00001910400000","GP_ID":"206287158","PERIAPSIS":"545.926","OBJECT_ID":"2021-012AM","OBJECT_TYPE":"PAYLOAD","REF_FRAME":"TEME","NORAD_CAT_ID":"47655","EPHEMERIS_TYPE":"0","MEAN_ANOMALY":"303.8513","ARG_OF_PERICENTER":"56.2651","MEAN_ELEMENT_THEORY":"SGP4","TLE_LINE2":"2 47655  53.0566  69.0634 0001838  56.2651 303.8513 15.06404660 74597","MEAN_MOTION_DDOT":"0.0000000000000","ECCENTRICITY":"0.00018380","RCS_SIZE":"LARGE","SITE":"AFETR","INCLINATION":"53.0566","RA_OF_ASC_NODE":"69.0634","MEAN_MOTION_DOT":"-0.00000566","REV_AT_EPOCH":"7459","OBJECT_NAME":"STARLINK-2039","CLASSIFICATION_TYPE":"U","SEMIMAJOR_AXIS":"6925.334","CENTER_NAME":"EARTH","ELEMENT_SET_NO":"999","DECAY_DATE":null,"TIME_SYSTEM":"UTC","LAUNCH_DATE":"2021-02-16","TLE_LINE1":"1 47655U 21012AM  22166.98138986 -.00000566  00000-0 -19104-4 0  9990"},{"REV_AT_EPOCH":"7487","MEAN_MOTION_DOT":"-0.00001060","RA_OF_ASC_NODE":"48.9894","INCLINATION":"53.0562","SITE":"AFETR","RCS_SIZE":"LARGE","TLE_LINE1":"1 47656U 21012AN  22166.99798408 -.00001060  00000-0 -52225-4 0  9994","TIME_SYSTEM":"UTC","LAUNCH_DATE":"2021-02-16","ELEMENT_SET_NO":"999","DECAY_DATE":null,"CENTER_NAME":"EARTH","SEMIMAJOR_AXIS":"6925.334","CLASSIFICATION_TYPE":"U","OBJECT_NAME":"STARLINK-2040","BSTAR":"-0.00005222500000","PERIOD":"95.592","EPOCH":"2022-06-15T23:57:05.824512","FILE":"3497002","APOAPSIS":"549.231","COUNTRY_CODE":"US","MEAN_MOTION":"15.06404841","ECCENTRICITY":"0.00029340","MEAN_MOTION_DDOT":"0.0000000000000","TLE_LINE2":"2 47656  53.0562  48.9894 0002934  70.1788 289.9517 15.06404841 74872","MEAN_ANOMALY":"289.9517","MEAN_ELEMENT_THEORY":"SGP4","ARG_OF_PERICENTER":"70.1788","NORAD_CAT_ID":"47656","EPHEMERIS_TYPE":"0","OBJECT_TYPE":"PAYLOAD","REF_FRAME":"TEME","GP_ID":"206287907","OBJECT_ID":"2021-012AN","PERIAPSIS":"545.167"},{"SITE":"AFETR","RCS_SIZE":"LARGE","MEAN_MOTION_DOT":"-0.00001047","REV_AT_EPOCH":"7459","INCLINATION":"53.0565","RA_OF_ASC_NODE":"68.9673","SEMIMAJOR_AXIS":"6925.368","CENTER_NAME":"EARTH","OBJECT_NAME":"STARLINK-2041","CLASSIFICATION_TYPE":"U","TIME_SYSTEM":"UTC","LAUNCH_DATE":"2021-02-16","TLE_LINE1":"1 47657U 21012AP  22167.00351139 -.00001047  00000-0 -51430-4 0  9996","DECAY_DATE":null,"ELEMENT_SET_NO":"999","MEAN_MOTION":"15.06393817","EPOCH":"2022-06-16T00:05:03.384096","PERIOD":"95.593","BSTAR":"-0.00005143000000","COUNTRY_CODE":"US","FILE":"3497002","APOAPSIS":"548.228","EPHEMERIS_TYPE":"0","NORAD_CAT_ID":"47657","MEAN_ANOMALY":"285.3264","MEAN_ELEMENT_THEORY":"SGP4","ARG_OF_PERICENTER":"74.7883","OBJECT_ID":"2021-012AP","PERIAPSIS":"546.237","GP_ID":"206288155","REF_FRAME":"TEME","OBJECT_TYPE":"PAYLOAD","MEAN_MOTION_DDOT":"0.0000000000000","ECCENTRICITY":"0.00014370","TLE_LINE2":"2 47657  53.0565  68.9673 0001437  74.7883 285.3264 15.06393817 74594"},{"APOAPSIS":"548.244","FILE":"3497002","COUNTRY_CODE":"US","BSTAR":"-0.00000365740000","PERIOD":"95.592","EPOCH":"2022-06-15T23:54:25.752096","MEAN_MOTION":"15.06406454","TLE_LINE2":"2 47658  53.0562  68.9940 0001517  66.9751 293.1398 15.06406454 74615","ECCENTRICITY":"0.00015170","MEAN_MOTION_DDOT":"0.0000000000000","OBJECT_TYPE":"PAYLOAD","REF_FRAME":"TEME","GP_ID":"206288903","OBJECT_ID":"2021-012AQ","PERIAPSIS":"546.143","MEAN_ANOMALY":"293.1398","ARG_OF_PERICENTER":"66.9751","MEAN_ELEMENT_THEORY":"SGP4","NORAD_CAT_ID":"47658","EPHEMERIS_TYPE":"0","RA_OF_ASC_NODE":"68.9940","INCLINATION":"53.0562","MEAN_MOTION_DOT":"-0.00000336","REV_AT_EPOCH":"7461","RCS_SIZE":"LARGE","SITE":"AFETR","ELEMENT_SET_NO":"999","DECAY_DATE":null,"TLE_LINE1":"1 47658U 21012AQ  22166.99613139 -.00000336  00000-0 -36574-5 0  9998","LAUNCH_DATE":"2021-02-16","TIME_SYSTEM":"UTC","CLASSIFICATION_TYPE":"U","OBJECT_NAME":"STARLINK-2042","CENTER_NAME":"EARTH","SEMIMAJOR_AXIS":"6925.329"},{"TLE_LINE1":"1 47659U 21012AR  22166.69020922 -.00000848  00000-0 -38068-4 0  9995","TIME_SYSTEM":"UTC","LAUNCH_DATE":"2021-02-16","DECAY_DATE":null,"ELEMENT_SET_NO":"999","CENTER_NAME":"EARTH","SEMIMAJOR_AXIS":"6925.367","CLASSIFICATION_TYPE":"U","OBJECT_NAME":"STARLINK-2043","MEAN_MOTION_DOT":"-0.00000848","REV_AT_EPOCH":"7620","RA_OF_ASC_NODE":"310.3718","INCLINATION":"53.0551","SITE":"AFETR","RCS_SIZE":"LARGE","ECCENTRICITY":"0.00015190","MEAN_MOTION_DDOT":"0.0000000000000","TLE_LINE2":"2 47659  53.0551 310.3718 0001519  82.8326 277.2836 15.06393856 76206","MEAN_ANOMALY":"277.2836","ARG_OF_PERICENTER":"82.8326","MEAN_ELEMENT_THEORY":"SGP4","EPHEMERIS_TYPE":"0","NORAD_CAT_ID":"47659","REF_FRAME":"TEME","OBJECT_TYPE":"PAYLOAD","OBJECT_ID":"2021-012AR","PERIAPSIS":"546.180","GP_ID":"206237904","BSTAR":"-0.00003806800000","EPOCH":"2022-06-15T16:33:54.076608","PERIOD":"95.593","COUNTRY_CODE":"US","FILE":"3496999","APOAPSIS":"548.284","MEAN_MOTION":"15.06393856"},{"MEAN_MOTION_DDOT":"0.0000000000000","ECCENTRICITY":"0.00012660","TLE_LINE2":"2 47660  53.0568 299.4122 0001266  83.3631 276.7501 15.05171136 76393","NORAD_CAT_ID":"47660","EPHEMERIS_TYPE":"0","MEAN_ANOMALY":"276.7501","ARG_OF_PERICENTER":"83.3631","MEAN_ELEMENT_THEORY":"SGP4","GP_ID":"206287408","OBJECT_ID":"2021-012AS","PERIAPSIS":"550.105","OBJECT_TYPE":"PAYLOAD","REF_FRAME":"TEME","PERIOD":"95.670","EPOCH":"2022-06-16T00:59:33.415008","BSTAR":"0.01605200000000","FILE":"3497002","APOAPSIS":"551.860","COUNTRY_CODE":"US","MEAN_MOTION":"15.05171136","LAUNCH_DATE":"2021-02-16","TIME_SYSTEM":"UTC","TLE_LINE1":"1 47660U 21012AS  22167.04135897  .00239042  00000-0  16052-1 0  9999","ELEMENT_SET_NO":"999","DECAY_DATE":null,"SEMIMAJOR_AXIS":"6929.117","CENTER_NAME":"EARTH","OBJECT_NAME":"STARLINK-2044","CLASSIFICATION_TYPE":"U","REV_AT_EPOCH":"7639","MEAN_MOTION_DOT":"0.00239042","INCLINATION":"53.0568","RA_OF_ASC_NODE":"299.4122","SITE":"AFETR","RCS_SIZE":"LARGE"},{"ELEMENT_SET_NO":"999","DECAY_DATE":null,"TLE_LINE1":"1 47661U 21012AT  22166.96111997  .00000402  00000-0  45918-4 0  9997","TIME_SYSTEM":"UTC","LAUNCH_DATE":"2021-02-16","CLASSIFICATION_TYPE":"U","OBJECT_NAME":"STARLINK-2051","CENTER_NAME":"EARTH","SEMIMAJOR_AXIS":"6925.348","RA_OF_ASC_NODE":"49.1501","INCLINATION":"53.0571","MEAN_MOTION_DOT":"0.00000402","REV_AT_EPOCH":"7485","RCS_SIZE":"LARGE","SITE":"AFETR","TLE_LINE2":"2 47661  53.0571  49.1501 0001658  58.4503 301.6648 15.06400293 74854","ECCENTRICITY":"0.00016580","MEAN_MOTION_DDOT":"0.0000000000000","OBJECT_TYPE":"PAYLOAD","REF_FRAME":"TEME","GP_ID":"206288656","OBJECT_ID":"2021-012AT","PERIAPSIS":"546.064","MEAN_ANOMALY":"301.6648","MEAN_ELEMENT_THEORY":"SGP4","ARG_OF_PERICENTER":"58.4503","NORAD_CAT_ID":"47661","EPHEMERIS_TYPE":"0","FILE":"3497002","APOAPSIS":"548.361","COUNTRY_CODE":"US","BSTAR":"0.00004591800000","PERIOD":"95.592","EPOCH":"2022-06-15T23:04:00.765408","MEAN_MOTION":"15.06400293"},{"ELEMENT_SET_NO":"999","DECAY_DATE":null,"TIME_SYSTEM":"UTC","LAUNCH_DATE":"2021-02-16","TLE_LINE1":"1 47662U 21012AU  22166.94175647  .00002621  00000-0  19468-3 0  9993","OBJECT_NAME":"STARLINK-2052","CLASSIFICATION_TYPE":"U","SEMIMAJOR_AXIS":"6925.295","CENTER_NAME":"EARTH","INCLINATION":"53.0557","RA_OF_ASC_NODE":"49.2384","MEAN_MOTION_DOT":"0.00002621","REV_AT_EPOCH":"7487","RCS_SIZE":"LARGE","SITE":"AFETR","TLE_LINE2":"2 47662  53.0557  49.2384 0001971  62.4921 297.6268 15.06417485 74871","MEAN_MOTION_DDOT":"0.0000000000000","ECCENTRICITY":"0.00019710","GP_ID":"206288403","OBJECT_ID":"2021-012AU","PERIAPSIS":"545.795","OBJECT_TYPE":"PAYLOAD","REF_FRAME":"TEME","NORAD_CAT_ID":"47662","EPHEMERIS_TYPE":"0","ARG_OF_PERICENTER":"62.4921","MEAN_ANOMALY":"297.6268","MEAN_ELEMENT_THEORY":"SGP4","FILE":"3497002","APOAPSIS":"548.525","COUNTRY_CODE":"US","PERIOD":"95.591","EPOCH":"2022-06-15T22:36:07.759008","BSTAR":"0.00019468000000","MEAN_MOTION":"15.06417485"},{"RCS_SIZE":"LARGE","SITE":"AFETR","INCLINATION":"53.0546","RA_OF_ASC_NODE":"330.4557","MEAN_MOTION_DOT":"-0.00000306","REV_AT_EPOCH":"7595","OBJECT_NAME":"STARLINK-2053","CLASSIFICATION_TYPE":"U","SEMIMAJOR_AXIS":"6925.363","CENTER_NAME":"EARTH","DECAY_DATE":null,"ELEMENT_SET_NO":"999","LAUNCH_DATE":"2021-02-16","TIME_SYSTEM":"UTC","TLE_LINE1":"1 47663U 21012AV  22166.74000706 -.00000306  00000-0 -16382-5 0  9999","MEAN_MOTION":"15.06395223","COUNTRY_CODE":"US","APOAPSIS":"548.374","FILE":"3496999","EPOCH":"2022-06-15T17:45:36.609984","PERIOD":"95.592","BSTAR":"-0.00000163820000","PERIAPSIS":"546.083","OBJECT_ID":"2021-012AV","GP_ID":"206237405","REF_FRAME":"TEME","OBJECT_TYPE":"PAYLOAD","EPHEMERIS_TYPE":"0","NORAD_CAT_ID":"47663","MEAN_ANOMALY":"300.7829","ARG_OF_PERICENTER":"59.3323","MEAN_ELEMENT_THEORY":"SGP4","TLE_LINE2":"2 47663  53.0546 330.4557 0001654  59.3323 300.7829 15.06395223 75950","MEAN_MOTION_DDOT":"0.0000000000000","ECCENTRICITY":"0.00016540"},{"BSTAR":"-0.00014319000000","PERIOD":"95.592","EPOCH":"2022-06-15T22:37:28.801344","FILE":"3497002","APOAPSIS":"548.401","COUNTRY_CODE":"US","MEAN_MOTION":"15.06398398","ECCENTRICITY":"0.00017080","MEAN_MOTION_DDOT":"0.0000000000000","TLE_LINE2":"2 47664  53.0562  49.2366 0001708  63.7302 296.3862 15.06398398 74871","ARG_OF_PERICENTER":"63.7302","MEAN_ANOMALY":"296.3862","MEAN_ELEMENT_THEORY":"SGP4","NORAD_CAT_ID":"47664","EPHEMERIS_TYPE":"0","OBJECT_TYPE":"PAYLOAD","REF_FRAME":"TEME","GP_ID":"206287908","OBJECT_ID":"2021-012AW","PERIAPSIS":"546.036","MEAN_MOTION_DOT":"-0.00002414","REV_AT_EPOCH":"7487","RA_OF_ASC_NODE":"49.2366","INCLINATION":"53.0562","SITE":"AFETR","RCS_SIZE":"LARGE","TLE_LINE1":"1 47664U 21012AW  22166.94269446 -.00002414  00000-0 -14319-3 0  9998","LAUNCH_DATE":"2021-02-16","TIME_SYSTEM":"UTC","ELEMENT_SET_NO":"999","DECAY_DATE":null,"CENTER_NAME":"EARTH","SEMIMAJOR_AXIS":"6925.353","CLASSIFICATION_TYPE":"U","OBJECT_NAME":"STARLINK-2054"}];
